H1 CPF  1  HTS 2022  4 15 12  6051 larets           NONE
H2  0304206 5557    27944 2022 04 15  0  0  0 2022 04 20  0  0  0   180 1 1  0 0 0
H5  0.0560 
H9 
10 0 59687  57960.00000  0   -6023864.661    3220676.194   -1826600.788
10 0 59687  58140.00000  0   -6074459.668    3577363.888    -509559.752
10 0 59687  58320.00000  0   -5896655.823    3802369.430     826123.023
10 0 59687  58500.00000  0   -5500282.831    3881471.266    2131512.164
10 0 59687  58680.00000  0   -4903517.428    3806158.302    3358686.738
10 0 59687  58860.00000  0   -4132070.314    3574165.521    4462548.772
10 0 59687  59040.00000  0   -3218065.677    3189739.809    5402520.429
10 0 59687  59220.00000  0   -2198673.371    2663625.404    6144056.075
10 0 59687  59400.00000  0   -1114559.447    2012769.392    6659913.026
10 0 59687  59580.00000  0      -8231.021    1259760.596    6931134.713
10 0 59687  59760.00000  0    1077647.925     432029.464    6947726.820
10 0 59687  59940.00000  0    2101914.117    -439161.876    6709016.817
10 0 59687  60120.00000  0    3026478.873   -1319907.606    6223689.031
10 0 59687  60300.00000  0    3817767.685   -2174987.230    5509491.423
10 0 59687  60480.00000  0    4447975.152   -2969288.782    4592612.832
10 0 59687  60660.00000  0    4896083.828   -3669272.349    3506744.215
10 0 59687  60840.00000  0    5148606.953   -4244414.425    2291844.497
10 0 59687  61020.00000  0    5200014.368   -4668559.539     992645.032
10 0 59687  61200.00000  0    5052815.002   -4921110.798    -343044.263
10 0 59687  61380.00000  0    4717294.475   -4987997.393   -1666154.441
10 0 59687  61560.00000  0    4210921.670   -4862364.703   -2928221.446
10 0 59687  61740.00000  0    3557458.763   -4544953.474   -4083203.880
10 0 59687  61920.00000  0    2785830.372   -4044156.137   -5089172.800
10 0 59687  62100.00000  0    1928816.714   -3375755.790   -5909805.027
10 0 59687  62280.00000  0    1021644.520   -2562375.852   -6515627.215
10 0 59687  62460.00000  0     100542.088   -1632676.331   -6884993.736
10 0 59687  62640.00000  0    -798687.186    -620324.885   -7004778.760
10 0 59687  62820.00000  0   -1642018.210     437212.306   -6870778.006
10 0 59687  63000.00000  0   -2398451.137    1500021.527   -6487828.025
10 0 59687  63180.00000  0   -3041117.280    2527201.121   -5869645.879
10 0 59687  63360.00000  0   -3548218.221    3478393.883   -5038393.407
10 0 59687  63540.00000  0   -3903775.030    4315352.490   -4023960.986
10 0 59687  63720.00000  0   -4098154.620    5003480.704   -2862968.594
10 0 59687  63900.00000  0   -4128344.858    5513285.390   -1597507.646
10 0 59687  64080.00000  0   -3997968.800    5821677.308    -273653.972
10 0 59687  64260.00000  0   -3717023.405    5913050.569    1060209.877
10 0 59687  64440.00000  0   -3301347.798    5780072.517    2355194.680
10 0 59687  64620.00000  0   -2771837.588    5424135.179    3563751.044
10 0 59687  64800.00000  0   -2153445.047    4855433.352    4641464.637
10 0 59687  64980.00000  0   -1474025.523    4092674.798    5548721.920
10 0 59687  65160.00000  0    -763087.040    3162436.147    6252183.042
10 0 59687  65340.00000  0     -50505.574    2098195.326    6726002.095
10 0 59687  65520.00000  0     634733.015     939090.927    6952759.420
10 0 59687  65700.00000  0    1265716.496    -271542.484    6924085.774
10 0 59687  65880.00000  0    1818669.728   -1487809.063    6640965.270
10 0 59687  66060.00000  0    2273861.486   -2663006.231    6113713.161
10 0 59687  66240.00000  0    2616324.825   -3751440.652    5361623.373
10 0 59687  66420.00000  0    2836363.730   -4710239.788    4412287.067
10 0 59687  66600.00000  0    2929827.464   -5501087.404    3300598.494
10 0 59687  66780.00000  0    2898141.079   -6091810.317    2067470.382
10 0 59687  66960.00000  0    2748084.514   -6457737.002     758300.548
10 0 59687  67140.00000  0    2491333.384   -6582755.927    -578745.457
10 0 59687  67320.00000  0    2143786.179   -6460024.773   -1894567.810
10 0 59687  67500.00000  0    1724707.275   -6092281.870   -3140998.301
10 0 59687  67680.00000  0    1255736.039   -5491749.697   -4272604.158
10 0 59687  67860.00000  0     759824.247   -4679642.341   -5248345.494
10 0 59687  68040.00000  0     260160.163   -3685327.357   -6033025.326
10 0 59687  68220.00000  0    -220872.695   -2545190.815   -6598490.804
10 0 59687  68400.00000  0    -662656.293   -1301263.018   -6924558.039
10 0 59687  68580.00000  0   -1047182.251        335.206   -6999651.984
10 0 59687  68760.00000  0   -1359753.131    1311073.381   -6821160.082
10 0 59687  68940.00000  0   -1589523.083    2581768.187   -6395501.934
10 0 59687  69120.00000  0   -1729864.014    3764373.663   -5737922.529
10 0 59687  69300.00000  0   -1778549.523    4813763.056   -4872007.078
10 0 59687  69480.00000  0   -1737749.995    5689448.298   -3828913.361
10 0 59687  69660.00000  0   -1613836.038    6357172.893   -2646325.038
10 0 59687  69840.00000  0   -1416992.695    6790308.396   -1367149.570
10 0 59687  70020.00000  0   -1160659.223    6970989.903     -37991.846
10 0 59687  70200.00000  0    -860815.771    6890925.451    1292546.428
10 0 59687  70380.00000  0    -535149.015    6551824.185    2575683.650
10 0 59687  70560.00000  0    -202140.584    5965396.955    3764299.582
10 0 59687  70740.00000  0     119871.587    5152943.770    4814708.233
10 0 59687  70920.00000  0     413611.847    4144545.443    5688302.772
10 0 59687  71100.00000  0     663721.125    2977892.443    6352982.809
10 0 59687  71280.00000  0     857500.843    1696828.956    6784326.613
10 0 59687  71460.00000  0     985513.874     349664.114    6966472.331
10 0 59687  71640.00000  0    1042019.866   -1012675.797    6892684.695
10 0 59687  71820.00000  0    1025227.487   -2338588.644    6565603.514
10 0 59687  72000.00000  0     937353.457   -3577773.368    5997162.931
10 0 59687  72180.00000  0     784484.892   -4683170.376    5208174.475
10 0 59687  72360.00000  0     576254.041   -5612787.119    4227587.377
10 0 59687  72540.00000  0     325338.314   -6331352.821    3091447.928
10 0 59687  72720.00000  0      46801.278   -6811727.321    1841570.134
10 0 59687  72900.00000  0    -242693.925   -7035984.823     523967.387
10 0 59687  73080.00000  0    -525758.338   -6996122.330    -812893.991
10 0 59687  73260.00000  0    -785190.895   -6694340.821   -2119947.092
10 0 59687  73440.00000  0   -1004878.606   -6142889.047   -3349380.644
10 0 59687  73620.00000  0   -1170638.955   -5363495.168   -4456418.992
10 0 59687  73800.00000  0   -1270961.407   -4386419.221   -5400950.009
10 0 59687  73980.00000  0   -1297612.205   -3249191.517   -6148933.945
10 0 59687  74160.00000  0   -1246078.348   -1995110.196   -6673558.114
10 0 59687  74340.00000  0   -1115836.415    -671565.751   -6956112.782
10 0 59687  74520.00000  0    -910441.287     671737.461   -6986579.046
10 0 59687  74700.00000  0    -637432.268    1984603.790   -6763931.487
10 0 59687  74880.00000  0    -308061.799    3218163.085   -6296161.019
10 0 59687  75060.00000  0      63146.071    4326641.455   -5600021.553
10 0 59687  75240.00000  0     458998.627    5269038.668   -4700493.310
10 0 59687  75420.00000  0     860378.411    6010658.320   -3629966.129
10 0 59687  75600.00000  0    1247104.377    6524434.903   -2427147.678
10 0 59687  75780.00000  0    1598876.705    6791995.418   -1135717.957
10 0 59687  75960.00000  0    1896263.870    6804398.891     197236.650
10 0 59687  76140.00000  0    2121681.587    6562500.172    1522954.549
10 0 59687  76320.00000  0    2260309.998    6076911.909    2792818.188
10 0 59687  76500.00000  0    2300902.293    5367563.741    3960183.174
10 0 59687  76680.00000  0    2236440.270    4462875.677    4982140.258
10 0 59687  76860.00000  0    2064597.523    3398577.706    5821128.883
10 0 59687  77040.00000  0    1787988.712    2216246.399    6446321.608
10 0 59687  77220.00000  0    1414199.034     961639.587    6834747.950
10 0 59687  77400.00000  0     955588.245    -317109.669    6972120.414
10 0 59687  77580.00000  0     428879.322   -1571357.963    6853345.746
10 0 59687  77760.00000  0    -145457.169   -2753820.208    6482716.960
10 0 59687  77940.00000  0    -744004.277   -3820376.665    5873768.689
10 0 59687  78120.00000  0   -1341350.568   -4731746.349    5048799.420
10 0 59687  78300.00000  0   -1911163.320   -5454974.987    4038087.356
10 0 59687  78480.00000  0   -2427349.367   -5964690.673    2878797.884
10 0 59687  78660.00000  0   -2865244.516   -6244050.860    1613603.499
10 0 59687  78840.00000  0   -3202770.279   -6285332.201     289076.716
10 0 59687  79020.00000  0   -3421498.076   -6090136.797   -1046079.365
10 0 59687  79200.00000  0   -3507565.263   -5669201.301   -2342885.094
10 0 59687  79380.00000  0   -3452395.146   -5041818.729   -3553936.011
10 0 59687  79560.00000  0   -3253183.419   -4234909.756   -4635163.926
10 0 59687  79740.00000  0   -2913131.163   -3281806.573   -5547427.934
10 0 59687  79920.00000  0   -2441425.493   -2220823.301   -6257881.378
10 0 59687  80100.00000  0   -1852976.093   -1093684.702   -6741079.810
10 0 59687  80280.00000  0   -1167922.284      56117.912   -6979806.508
10 0 59687  80460.00000  0    -410938.749    1184976.896   -6965606.814
10 0 59687  80640.00000  0     389637.093    2250773.000   -6699042.642
10 0 59687  80820.00000  0    1202833.300    3214397.521   -6189670.262
10 0 59687  81000.00000  0    1996206.565    4041156.693   -5455737.278
10 0 59687  81180.00000  0    2737103.495    4702013.436   -4523594.537
10 0 59687  81360.00000  0    3393981.733    5174630.507   -3426830.466
10 0 59687  81540.00000  0    3937743.254    5444173.008   -2205133.007
10 0 59687  81720.00000  0    4343024.554    5503827.249    -902901.596
10 0 59687  81900.00000  0    4589377.050    5355003.448     432351.658
10 0 59687  82080.00000  0    4662273.707    5007199.660    1751753.678
10 0 59687  82260.00000  0    4553883.574    4477528.498    3006896.248
99
